ORBCOMM FM115 [+]       
1 41186U 15081H   24054.40248042  .00001106  00000+0  26167-3 0  9996
2 41186  46.9982 157.6214 0000772 303.1182  56.9630 14.60393025437590
ORBCOMM FM108 [+]       
1 41187U 15081J   24054.78112240  .00001372  00000+0  34415-3 0  9998
2 41187  47.0031 207.7158 0003092 263.9888  96.0644 14.56312329436958
ORBCOMM FM117 [+]       
1 41188U 15081K   24054.81565297  .00000926  00000+0  24450-3 0  9999
2 41188  46.9994 206.4739 0003521 274.7105  85.3378 14.56304388436978
ORBCOMM FM116 [+]       
1 41189U 15081L   24054.80487641  .00001279  00000+0  32327-3 0  9999
2 41189  47.0020 296.3391 0002200   7.0407 353.0509 14.56340009435800
